DMSP 5D-3 F16 (USA 172) 
1 28054U 03048A   26166.62638432  .00000003  00000+0  25439-4 0  9998
2 28054  98.9891 190.4444 0007690 144.3127   8.3397 14.14483093169266
METEOSAT-9 (MSG-2)      
1 28912U 05049B   26166.60985016  .00000119  00000+0  00000+0 0  9995
2 28912   9.3580  54.1835 0001560 343.4435 131.4501  1.00271317  6983
DMSP 5D-3 F17 (USA 191) 
1 29522U 06050A   26166.54333630  .00000031  00000+0  38331-4 0  9994
2 29522  98.7378 173.1471 0011208  63.7008 296.5316 14.14992976 12191
FENGYUN 3A              
1 32958U 08026A   26166.56717479  .00000046  00000+0  42513-4 0  9998
2 32958  98.6883 107.4306 0009534 127.8836 232.3204 14.19570760935179
GOES 14                 
1 35491U 09033A   26166.57244536 -.00000284  00000+0  00000+0 0  9997
2 35491   1.6861  83.0618 0001716  10.8891 158.7461  1.00111281  6579
DMSP 5D-3 F18 (USA 210) 
1 35951U 09057A   26166.58532247  .00000199  00000+0  12626-3 0  9999
2 35951  98.9037 147.3579 0009874 254.6585 105.3497 14.14895882859360
EWS-G2 (GOES 15)        
1 36411U 10008A   26166.55683360  .00000019  00000+0  00000+0 0  9999
2 36411   1.2735  82.8801 0005393  42.4304  42.6912  1.00275734 59624
COMS 1                  
1 36744U 10032A   26165.90754437  .00000023  00000+0  00000+0 0  9992
2 36744   4.7990  75.3807 0011440  11.6720 225.4123  0.99162575 51067
FENGYUN 3B              
1 37214U 10059A   26166.61705431  .00000352  00000+0  20540-3 0  9993
2 37214  98.9624 212.6248 0021813 188.5099 286.1963 14.14842791807200
SUOMI NPP               
1 37849U 11061A   26166.57839167  .00000058  00000+0  48656-4 0  9992
2 37849  98.7953 107.4654 0001626  10.8216 349.2995 14.19517033758212
METEOSAT-10 (MSG-3)     
1 38552U 12035B   26166.33043115 -.00000004  00000+0  00000+0 0  9998
2 38552   4.6674  61.0286 0001436 327.6157 354.2543  1.00276454 50831
METOP-B                 
1 38771U 12049A   26166.57062441  .00000091  00000+0  61506-4 0  9993
2 38771  98.6505 218.1020 0002330  23.6447 336.4837 14.21432322713031
INSAT-3D                
1 39216U 13038B   26166.61454214 -.00000338  00000+0  00000+0 0  9997
2 39216   1.9222  82.5599 0000550 308.9364 223.1525  1.00269836 47062
FENGYUN 3C              
1 39260U 13052A   26166.63034462  .00000050  00000+0  46729-4 0  9996
2 39260  98.4986 140.5766 0015327  31.9341 328.2759 14.15754665658340
METEOR-M 2              
1 40069U 14037A   26166.59702247 -.00000198  00000+0 -71199-4 0  9991
2 40069  98.5106 142.3915 0006843  48.1166 312.0595 14.21460298619099
HIMAWARI-8              
1 40267U 14060A   26166.57201203 -.00000273  00000+0  00000+0 0  9992
2 40267   0.0159 345.4066 0000974 102.0786 162.9574  1.00272096 42746
FENGYUN 2G              
1 40367U 14090A   26165.77976201 -.00000301  00000+0  00000+0 0  9996
2 40367   5.6329  72.8457 0003942 155.9654  54.6513  1.00273198 41979
METEOSAT-11 (MSG-4)     
1 40732U 15034A   26166.26092124  .00000067  00000+0  00000+0 0  9997
2 40732   3.1967  71.1216 0001755  10.4371 285.5308  1.00279763  7199
ELEKTRO-L 2             
1 41105U 15074A   26165.97095833 -.00000118  00000+0  00000+0 0  9991
2 41105   6.6873  70.5494 0000874 244.3322 283.4193  1.00270489 38485
SENTINEL-3A             
1 41335U 16011A   26166.60357011  .00000089  00000+0  54955-4 0  9997
2 41335  98.6249 234.0099 0001395 102.2432 257.8905 14.26739563537833
INSAT-3DR               
1 41752U 16054A   26166.48754425 -.00000074  00000+0  00000+0 0  9995
2 41752   0.1021  86.5724 0010642 187.2831 239.4059  1.00270796 35800
HIMAWARI-9              
1 41836U 16064A   26166.57209869 -.00000273  00000+0  00000+0 0  9997
2 41836   0.0518 143.5801 0000824 357.0812 109.9131  1.00269554 35194
GOES 16                 
1 41866U 16071A   26166.43565388 -.00000088  00000+0  00000+0 0  9998
2 41866   0.3367  85.5294 0000202 301.4500 288.8852  1.00270900 35082
FENGYUN 4A              
1 41882U 16077A   26166.64123769 -.00000356  00000+0  00000+0 0  9996
2 41882   2.3177  80.2972 0008703 153.2799  24.9616  1.00269304 34917
CYGFM05                 
1 41884U 16078A   26166.57614677  .00019860  00000+0  26982-3 0  9994
2 41884  34.9572 271.2581 0006846 134.5757 225.5527 15.56612974528503
CYGFM04                 
1 41885U 16078B   26166.55175298  .00024752  00000+0  27957-3 0  9993
2 41885  34.9319 239.1923 0006470 180.1806 179.8918 15.61438401528749
CYGFM02                 
1 41886U 16078C   26166.55556351  .00028970  00000+0  29075-3 0  9996
2 41886  34.9398 233.7502 0007480 181.3751 178.6956 15.64415610528912
CYGFM01                 
1 41887U 16078D   26166.50145936  .00020823  00000+0  27582-3 0  9995
2 41887  34.9401 272.8236 0006627 127.5289 232.6038 15.57284855528443
CYGFM08                 
1 41888U 16078E   26166.52782416  .00023283  00000+0  27848-3 0  9996
2 41888  34.9428 252.2716 0008138 161.1342 198.9686 15.59947079528710
CYGFM07                 
1 41890U 16078G   26166.55105831  .00022778  00000+0  27154-3 0  9990
2 41890  34.9440 240.4604 0006882 178.8256 181.2486 15.60047720528747
CYGFM03                 
1 41891U 16078H   26166.52205786  .00023531  00000+0  28061-3 0  9994
2 41891  34.9396 242.5913 0006274 166.2351 193.8546 15.60039625528714
